OBJECT_NAME,OBJECT_ID,EPOCH,MEAN_MOTION,ECCENTRICITY,INCLINATION,RA_OF_ASC_NODE,ARG_OF_PERICENTER,MEAN_ANOMALY,EPHEMERIS_TYPE,CLASSIFICATION_TYPE,NORAD_CAT_ID,ELEMENT_SET_NO,REV_AT_EPOCH,BSTAR,MEAN_MOTION_DOT,MEAN_MOTION_DDOT
IRIDIUM 33 DEB,1997-051KM,2024-04-21T12:08:42.687168,14.48898202,0.000804,86.3772,296.5572,226.9567,161.3289,0,U,34690,999,79382,0.0027567,0.00010459,0
IRIDIUM 33 DEB,1997-051KQ,2024-04-21T19:09:34.301952,14.70174888,0.0017395,86.3361,224.5856,9.1005,144.7614,0,U,34693,999,79966,0.0061246,0.00037132,0
IRIDIUM 33 DEB,1997-051KT,2024-04-21T23:42:20.316960,14.3072252,0.0116485,86.2002,297.9522,2.5204,149.598,0,U,34696,999,78047,0.0081224,0.00022955,0
IRIDIUM 33 DEB,1997-051KZ,2024-04-22T03:48:44.767008,14.79958102,0.0031462,86.3069,181.4855,203.0637,156.9174,0,U,34702,999,80568,0.0057082,0.00043734,0
IRIDIUM 33 DEB,1997-051LJ,2024-04-21T22:27:33.649632,14.3727884,0.0018233,86.3348,289.4298,36.5561,117.6978,0,U,34765,999,79067,0.0015902,4.767e-05,0
IRIDIUM 33 DEB,1997-051LS,2024-04-21T05:06:15.755904,14.892814,0.0011807,86.3907,285.1334,288.7439,71.2506,0,U,34773,999,80148,0.0087577,0.00083961,0
IRIDIUM 33 DEB,1997-051LT,2024-04-21T16:46:27.684192,15.17325363,0.0009545,86.4046,274.1943,230.3061,257.7789,0,U,34774,999,80490,0.014821,0.00308004,0
IRIDIUM 33 DEB,1997-051LU,2024-04-21T23:14:36.623616,14.6083287,0.0025698,86.3703,295.1575,202.71,316.2071,0,U,34775,999,79455,0.0094227,0.00046539,0
IRIDIUM 33 DEB,1997-051LZ,2024-04-20T09:29:23.887104,14.97058687,0.0012072,86.3512,257.4523,281.0501,140.5641,0,U,34825,999,79773,0.01276,0.00150192,0
IRIDIUM 33 DEB,1997-051MH,2024-04-21T06:28:16.590144,14.45344409,0.0019612,86.3927,308.308,304.7481,110.681,0,U,34833,999,79018,0.0018849,6.657e-05,0
IRIDIUM 33 DEB,1997-051MP,2024-04-20T10:34:36.892992,15.33271932,0.0011217,86.4278,2.3242,39.0926,321.1133,0,U,34869,999,78768,0.04483,0.01579612,0
IRIDIUM 33 DEB,1997-051MQ,2024-04-20T18:42:48.386880,14.59791061,0.0027352,86.3205,225.4917,106.6579,45.1666,0,U,34870,999,80211,0.0038732,0.00018646,0
IRIDIUM 33 DEB,1997-051MY,2024-04-22T01:52:24.078144,14.56401637,0.003422,86.3345,233.3957,103.9022,23.4175,0,U,34896,999,79566,0.0034771,0.00015592,0
IRIDIUM 33 DEB,1997-051NA,2024-04-20T14:16:53.119200,15.2880199,0.0004789,86.3181,176.9164,153.5348,206.6146,0,U,34898,999,80317,0.0093772,0.00271657,0
IRIDIUM 33 DEB,1997-051NF,2024-04-22T04:51:53.153856,14.26764796,0.0145207,86.1449,279.3564,99.9056,26.5261,0,U,34926,999,77881,0.011557,0.00031415,0
IRIDIUM 33 DEB,1997-051NH,2024-04-21T08:39:00.631008,14.7475389,0.0024513,86.3907,251.8678,294.421,65.445,0,U,34928,999,57264,0.0042681,0.00028788,0
IRIDIUM 33 DEB,1997-051NR,2024-04-21T13:02:42.573120,14.38247141,0.0024055,86.3658,312.083,47.5269,341.6088,0,U,34985,999,78536,0.0018561,5.679e-05,0
IRIDIUM 33 DEB,1997-051NS,2024-04-20T21:02:13.476768,15.44492766,0.0022544,86.3484,271.5599,303.6976,56.213,0,U,34986,999,79237,0.026579,0.01378152,0
IRIDIUM 33 DEB,1997-051NV,2024-04-21T06:57:37.624320,15.48202736,0.0022527,86.3537,229.75,293.5556,66.3336,0,U,35049,999,62977,0.022818,0.01338564,0
IRIDIUM 33 DEB,1997-051NX,2024-04-21T10:00:57.343968,14.42294829,0.0006625,86.3212,269.3597,279.1443,80.9007,0,U,35051,999,78325,0.0020152,6.671e-05,0
IRIDIUM 33 DEB,1997-051NY,2024-04-21T18:16:42.052512,14.36963313,0.0009759,86.3259,277.2813,245.3788,114.6393,0,U,35052,999,78654,0.00080728,2.41e-05,0
IRIDIUM 33 DEB,1997-051PE,2024-04-12T04:10:02.255808,14.45495453,0.009701,86.4306,63.1175,257.0449,101.9906,0,U,35079,999,77510,0.0052451,0.00019646,0
IRIDIUM 33 DEB,1997-051PF,2024-04-21T13:34:26.205312,14.35098333,0.0144285,86.2296,324.9578,45.1629,316.1184,0,U,35080,999,77381,0.011808,0.00038085,0
IRIDIUM 33 DEB,1997-051PJ,2024-04-20T00:58:01.177824,15.13765749,0.0017105,86.2921,215.4594,220.6308,265.1416,0,U,35294,999,79124,0.025395,0.00490396,0
IRIDIUM 33 DEB,1997-051PL,2024-04-20T01:27:38.345472,14.74751871,0.0009162,86.3009,223.79,225.5641,134.4828,0,U,35296,999,62346,0.019058,0.00129855,0
IRIDIUM 33 DEB,1997-051PM,2024-04-19T07:43:02.365824,14.40102086,0.0015869,86.3873,318.7734,344.0225,16.0471,0,U,35297,999,61739,0.0015165,4.81e-05,0
IRIDIUM 33 DEB,1997-051PP,2024-04-21T22:44:16.554048,14.33540642,0.0057414,86.2859,292.6826,270.5932,243.215,0,U,35299,999,77828,0.0040072,0.00011315,0
IRIDIUM 33 DEB,1997-051PZ,2024-03-25T01:21:01.076544,14.65239641,0.0050105,86.3917,11.8771,52.3835,308.1909,0,U,35479,999,49245,0.069824,0.00401958,0
IRIDIUM 33 DEB,1997-051QA,2024-04-21T10:41:21.471360,14.44301553,0.0012513,86.3531,283.972,308.2678,51.7397,0,U,35480,999,78348,0.0018719,6.462e-05,0
IRIDIUM 33 DEB,1997-051QE,2024-04-15T04:31:27.209568,14.62905909,0.0041466,86.3713,267.6526,100.7967,259.7916,0,U,35484,999,53046,0.0037649,0.0001955,0
IRIDIUM 33 DEB,1997-051QJ,2024-04-20T17:35:04.263936,14.65782536,0.0033029,86.3387,213.9238,332.2962,27.649,0,U,35488,999,79416,0.0030319,0.00016706,0
IRIDIUM 33 DEB,1997-051QN,2024-04-20T19:44:08.012544,14.61101475,0.0017145,86.3585,255.3172,112.5052,247.7976,0,U,35616,999,78957,0.0044556,0.00022012,0
IRIDIUM 33 DEB,1997-051QQ,2024-04-22T03:05:58.760448,14.47707749,0.0030359,86.3388,254.6544,219.7201,140.178,0,U,35618,999,78522,0.0023047,8.576e-05,0
IRIDIUM 33 DEB,1997-051QS,2024-04-21T23:17:46.897152,14.14679489,0.0203376,86.3875,106.0581,30.0823,331.1859,0,U,35620,999,75897,0.015538,0.00036645,0
IRIDIUM 33 DEB,1997-051QU,2024-04-21T22:51:15.252768,14.58584468,0.0024668,86.2198,186.5208,213.6607,272.2862,0,U,35622,999,78498,0.0056051,0.00026277,0
IRIDIUM 33 DEB,1997-051QX,2024-04-19T05:44:43.278720,14.21181732,0.0118732,86.1884,285.8687,338.1796,146.7627,0,U,35625,999,57452,0.0031415,7.356e-05,0
IRIDIUM 33 DEB,1997-051RA,2024-04-21T18:11:53.141280,14.53465632,0.0015846,86.3571,273.6194,203.2817,156.7674,0,U,35628,999,77686,0.0044384,0.00018575,0
IRIDIUM 33 DEB,1997-051RD,2024-04-21T21:44:56.652000,14.44505253,0.0016805,86.362,278.5978,322.1606,190.9415,0,U,35631,999,78528,0.0015414,5.35e-05,0
IRIDIUM 33 DEB,1997-051RE,2024-04-21T18:12:55.236096,14.47662828,0.0098421,86.4229,33.7054,26.6417,333.9794,0,U,35632,999,77083,0.012583,0.0004962,0
IRIDIUM 33 DEB,1997-051RJ,2024-04-19T22:33:49.893120,14.08986405,0.0185153,86.105,285.2947,23.2171,129.9394,0,U,35680,999,75977,0.003719,7.56e-05,0
IRIDIUM 33 DEB,1997-051RX,2024-04-21T07:36:17.196480,14.58255154,0.0029948,86.3351,233.871,99.6007,260.8588,0,U,35744,999,78540,0.0029993,0.00013974,0
IRIDIUM 33 DEB,1997-051SC,2024-04-22T03:25:21.325152,14.82008748,0.0012911,86.3666,256.4912,235.5238,124.4765,0,U,35749,999,78291,0.011382,0.00091547,0
IRIDIUM 33 DEB,1997-051SF,2024-04-22T02:07:08.115168,14.618243,0.0020721,86.3442,240.631,90.9496,269.4089,0,U,35797,999,78685,0.0053815,0.00027053,0
IRIDIUM 33 DEB,1997-051SP,2024-04-22T00:07:45.131808,14.60321339,0.0060504,86.3177,321.3835,322.8416,36.8612,0,U,35805,999,76873,0.011236,0.00056108,0
IRIDIUM 33 DEB,1997-051SQ,2024-04-10T18:31:38.477568,14.46469611,0.001445,86.3425,287.3274,323.1092,36.9115,0,U,35806,999,77505,0.0010367,3.751e-05,0
IRIDIUM 33 DEB,1997-051ST,2024-04-19T02:30:05.727744,14.57829372,0.0021034,86.3334,245.7301,156.5354,203.6819,0,U,35809,999,77971,0.0043473,0.00020013,0
IRIDIUM 33 DEB,1997-051SW,2024-04-21T12:50:54.576096,14.38652474,0.0018544,86.3757,313.9707,1.5493,358.5759,0,U,35846,999,77090,0.0016765,5.165e-05,0
IRIDIUM 33 DEB,1997-051SY,2024-04-18T05:25:04.573632,14.59303526,0.0014394,86.3917,283.2661,135.767,224.4693,0,U,35848,999,57828,0.0037558,0.00017821,0
IRIDIUM 33 DEB,1997-051TA,2024-04-21T03:11:09.054816,14.60002804,0.0017064,86.3547,253.2229,122.2453,238.0414,0,U,35850,999,62535,0.0038221,0.00018426,0
IRIDIUM 33 DEB,1997-051TU,2024-04-20T20:37:10.998912,14.48260739,0.0069748,86.2238,259.8791,305.6539,53.8182,0,U,35911,999,78206,0.011026,0.00042683,0
IRIDIUM 33 DEB,1997-051UB,2024-04-18T09:18:24.255072,14.42538879,0.0030201,86.4059,332.9193,26.5445,95.3012,0,U,35918,999,76480,0.002384,7.97e-05,0
IRIDIUM 33 DEB,1997-051UE,2024-04-13T02:59:01.474368,14.55383703,0.0085727,86.4124,47.3537,148.2247,212.4176,0,U,35921,999,77845,0.0054776,0.0002507,0
IRIDIUM 33 DEB,1997-051UK,2024-04-19T06:29:39.587712,15.46252268,0.0018986,86.3189,211.4381,264.4835,95.4256,0,U,35926,999,78588,0.01832,0.00989695,0
IRIDIUM 33 DEB,1997-051UN,2024-04-20T14:32:54.314016,14.6865734,0.0022096,86.3481,229.0246,351.6107,8.4735,0,U,35929,999,78930,0.0048383,0.00028348,0
IRIDIUM 33 DEB,1997-051US,2024-04-17T06:33:12.053952,14.37580026,0.0021827,86.3364,294.1952,55.6134,68.2735,0,U,36011,999,55843,0.0012215,3.691e-05,0
IRIDIUM 33 DEB,1997-051UT,2024-04-21T11:13:09.196320,14.00474138,0.027127,86.4551,185.8036,347.274,12.1676,0,U,36012,999,57023,0.0064767,0.0001325,0
IRIDIUM 33 DEB,1997-051VA,2024-04-21T20:44:49.713792,14.81947696,0.0002172,86.3797,260.5546,19.0445,133.194,0,U,36019,999,77663,0.010793,0.00086514,0
IRIDIUM 33 DEB,1997-051VC,2024-04-18T17:29:02.863104,15.14113438,0.0028579,86.3861,7.6495,202.913,157.0837,0,U,36021,999,49878,0.024057,0.00470288,0
IRIDIUM 33 DEB,1997-051VK,2024-04-20T14:30:51.154272,14.66996191,0.0025526,86.3368,222.443,6.3068,353.8462,0,U,36028,999,78319,0.0045022,0.00025431,0
IRIDIUM 33 DEB,1997-051VM,2024-04-15T04:29:36.324672,14.41403291,0.0018848,86.3173,271.0848,19.9413,340.2519,0,U,36080,999,76824,0.0012787,4.17e-05,0
IRIDIUM 33 DEB,1997-051VQ,2024-04-15T18:21:45.580896,14.38782274,0.0030035,86.3464,294.0676,67.7799,292.658,0,U,36083,999,76832,0.0013333,4.136e-05,0
IRIDIUM 33 DEB,1997-051VU,2024-04-17T00:14:26.763936,14.59285591,0.0042655,86.3042,213.1841,88.2942,272.3152,0,U,36390,999,57396,0.0036244,0.00017385,0
IRIDIUM 33 DEB,1997-051VZ,2024-04-15T07:20:17.905056,14.40924528,0.0008611,86.3785,311.0383,348.8272,11.2735,0,U,36483,999,56396,0.00097996,3.164e-05,0
IRIDIUM 33 DEB,1997-051WB,2024-04-21T13:09:44.409888,14.68735113,0.0080293,86.4343,37.8482,341.2357,18.5901,0,U,36485,999,75048,0.018027,0.00111909,0
